#aV2011 12 16  0  0   .00000000      96 DD+AD WGS84 FIT  NGA
## 1666 432000.00000000   900.00000000 55911  .0000000000000
+   31     1  2  3  4  5  6  7  8  9 10 11 12 13 14 15 16 17
+         18 19 20 21 22 23 25 26 27 28 29 30 31 32  0  0  0
+          0  0  0  0  0  0  0  0  0  0  0  0  0  0  0  0  0
+          0  0  0  0  0  0  0  0  0  0  0  0  0  0  0  0  0
+          0  0  0  0  0  0  0  0  0  0  0  0  0  0  0  0  0
++         0  0  0  0  0  0  0  0  0  0  0  0  0  0  0  0  0
++         0  0  0  0  0  0  0  0  0  0  0  0  0  0  0  0  0
++         0  0  0  0  0  0  0  0  0  0  0  0  0  0  0  0  0
++         0  0  0  0  0  0  0  0  0  0  0  0  0  0  0  0  0
++         0  0  0  0  0  0  0  0  0  0  0  0  0  0  0  0  0
%c cc cc ccc ccc cccc cccc cccc cccc ccccc ccccc ccccc ccccc
%c cc cc ccc ccc cccc cccc cccc cccc ccccc ccccc ccccc ccccc
%f  0.0000000  0.000000000  0.00000000000  0.000000000000000
%f  0.0000000  0.000000000  0.00000000000  0.000000000000000
%i    0    0    0    0      0      0      0      0         0
%i    0    0    0    0      0      0      0      0         0
/*      NGA, ST. LOUIS,MO.                                  
/*   EPHEMERIS COMPUTED FROM  3 DAYS OF DATA                
/* CCCCCCCCCCCCCCCCCCCCCCCCCCCCCCCCCCCCCCCCCCCCCCCCCCCCCCCCC
/* CCCCCCCCCCCCCCCCCCCCCCCCCCCCCCCCCCCCCCCCCCCCCCCCCCCCCCCCC
*  2011 12 16 23  0   .00000000                                                 
P  1 -13696.819913  21448.587599   7567.959933    144.805396                    
V  1    863.479294  -9968.298766  29754.472804       .160319                    
P  2  16113.778331    613.298661 -20953.027160    370.520783                    
V  2  -8345.005290  25656.498235  -6142.363736       .017258                    
P  3 -21735.436706  -6732.789861  13476.630356    809.331686                    
V  3 -10995.492833 -14323.951561 -23796.587545       .052261                    
P  4  10775.540305  13552.035687 -20300.332254     35.282876                    
V  4 -10299.143194  23273.061013  10523.066271       .112630                    
P  5  26387.505345  -2244.925750  -2786.040800   -258.773644                    
V  5  -2989.145550   3474.043052 -31227.926622      -.048090                    
P  6 -21465.234100 -11002.659402  11543.860559     15.763719                    
V  6  -7641.116628 -12531.073442 -26192.629143       .040256                    
P  7  -5357.960294  25105.122331   6319.543906     43.762812                    
V  7  -5249.666921   6564.352095 -30867.895300       .024270                    
P  8   1644.166952  20611.209876  16382.218325       .182834                    
V  8 -10519.867825  18065.490794 -22301.614053       .000647                    
P  9  14524.787353 -19291.104906  10540.960058    125.472594                    
V  9  -3039.916375  13974.759584  28281.118514       .025224                    
P 10  16380.592295  10961.550326 -18219.263514    -22.398738                    
V 10 -22140.747454   4556.137610 -16999.942095      -.012283                    
P 11 -13410.739161  17477.901703  14241.269413   -213.809355                    
V 11  -2036.185516 -19385.832656  21660.680007      -.035876                    
P 12  19953.887976 -11584.809322 -12987.606317     41.025797                    
V 12  16656.377829   -319.089459  26026.618166       .022425                    
P 13   1078.219514  20921.191062 -16415.847674    235.893182                    
V 13 -12620.539441 -16287.432351 -21846.093454      -.020749                    
P 14 -15534.166007 -21638.984715    -95.544916    186.055652                    
V 14   1488.641196  -1475.221689  32094.641577       .016557                    
P 15  14069.849040  -7162.213378  21381.872645    -96.608096                    
V 15  17291.353348  20954.725274  -4163.968276       .008739                    
P 16 -26476.559969    790.046646  -3512.979541   -214.269629                    
V 16   4169.642939  -2480.076808 -31546.896067      -.018816                    
P 17  15013.394266  22000.158530   1909.585768    160.170460                    
V 17  -3380.241090   -227.780281  31505.166779      -.020930                    
P 18    656.062862 -16165.871406  21374.024122    172.200708                    
V 18  26308.295212  -3287.822561  -3712.587694       .018163                    
P 19 -15840.418190   3019.146790  21131.087511   -215.852811                    
V 19 -14631.750429 -22516.173278  -7375.044906      -.039433                    
P 20 -18462.376558  13810.885838 -13280.863294     58.155897                    
V 20 -16961.106504    436.695790  24393.777258       .007261                    
P 21   1154.000407 -24273.587682  10425.609411   -191.341820                    
V 21   8065.799005 -10657.420146 -27456.458416      -.024832                    
P 22 -14884.430893 -11968.395624  18675.155489    143.077780                    
V 22  22943.870187  -5061.937699  15074.415353       .000564                    
P 23  -7301.492150  14370.614977 -21017.632535    250.244367                    
V 23 -17335.096865 -20482.966913  -8325.063784      -.033212                    
P 25  10120.397968 -15226.300286 -19280.275095     30.164531                    
V 25  24282.875356  -2880.347069  15072.415302       .006170                    
P 26  18663.954449   7270.673309  17038.229376   -264.101591                    
V 26  11755.202684  19360.839854 -20052.168227      -.138878                    
P 27  16333.206476 -12520.533939  17188.911968    336.522869                    
V 27  -5233.722187  20100.391921  20793.724752       .039491                    
P 28  11322.403345  12899.983024  20878.150307     93.772238                    
V 28 -24952.245489   3414.041883  11490.132801       .034920                    
P 29   -804.120198 -20576.724818 -16732.825540    266.684514                    
V 29  14169.415209  16065.984779 -20321.975594       .033267                    
P 30 -22665.850889  -3920.549290 -13639.730098     20.990727                    
V 30  15628.040479  -6378.346314 -24775.008454      -.115421                    
P 31 -11302.469872 -10410.798710 -21423.721870    183.396204                    
V 31  10811.901102 -25483.950905   6833.077636       .049505                    
P 32 -24276.954819   6886.649583  -7253.272640   -378.240149                    
V 32  -9863.908105  -2613.893814  30020.691965      -.058817                    
EOF
